{
  "type": "FeatureCollection",
  "features": [
    {
      "type": "Feature",
      "properties": {
        "norad_id": 36046,
        "name": "COSMOS 2251 DEB",
        "group": "cosmos-2251-debris",
        "lat": 34.86715566947316,
        "lon": 91.56718867596905,
        "alt_km": 662.2712198907839,
        "timestamp": "2025-12-09T07:41:33.608757+00:00",
        "meta_object_name": "COSMOS 2251 DEB",
        "meta_object_id": "1993-036AXH",
        "meta_epoch": "2025-12-07T14:53:37.140000",
        "meta_mean_motion": 14.65217113,
        "meta_eccentricity": 0.00554066,
        "meta_inclination": 74.0172,
        "meta_ra_of_asc_node": 286.36,
        "meta_arg_of_pericenter": 73.7608,
        "meta_mean_anomaly": 105.7765,
        "meta_ephemeris_type": 0,
        "meta_classification_type": "U",
        "meta_norad_cat_id": 36046,
        "meta_element_set_no": 999,
        "meta_rev_at_epoch": 63928,
        "meta_bstar": 0.0010874052,
        "meta_mean_motion_dot": 5.963e-05,
        "meta_mean_motion_ddot": 0,
        "tle_line1": "1 36046U 93036AXH 25341.62056875  .00005963  00000+0  10874-2 0  9998",
        "tle_line2": "2 36046  74.0172 286.3600 0055406  73.7608 105.7765 14.65217113639288"
      },
      "geometry": {
        "type": "Point",
        "coordinates": [
          91.56718867596905,
          34.86715566947316
        ]
      }
    },
    {
      "type": "Feature",
      "properties": {
        "norad_id": 36047,
        "name": "COSMOS 2251 DEB",
        "group": "cosmos-2251-debris",
        "lat": 55.18984426914185,
        "lon": 5.375891643115698,
        "alt_km": 571.1756811107853,
        "timestamp": "2025-12-09T07:41:33.608768+00:00",
        "meta_object_name": "COSMOS 2251 DEB",
        "meta_object_id": "1993-036AXJ",
        "meta_epoch": "2025-12-07T07:16:20.320608",
        "meta_mean_motion": 14.95604357,
        "meta_eccentricity": 0.00080307,
        "meta_inclination": 74.0361,
        "meta_ra_of_asc_node": 345.134,
        "meta_arg_of_pericenter": 10.1198,
        "meta_mean_anomaly": 350.0147,
        "meta_ephemeris_type": 0,
        "meta_classification_type": "U",
        "meta_norad_cat_id": 36047,
        "meta_element_set_no": 999,
        "meta_rev_at_epoch": 65858,
        "meta_bstar": 0.0028046343,
        "meta_mean_motion_dot": 0.00031273,
        "meta_mean_motion_ddot": 0,
        "tle_line1": "1 36047U 93036AXJ 25341.30301297  .00031273  00000+0  28046-2 0  9998",
        "tle_line2": "2 36047  74.0361 345.1340 0008030  10.1198 350.0147 14.95604357658580"
      },
      "geometry": {
        "type": "Point",
        "coordinates": [
          5.375891643115698,
          55.18984426914185
        ]
      }
    },
    {
      "type": "Feature",
      "properties": {
        "norad_id": 36048,
        "name": "COSMOS 2251 DEB",
        "group": "cosmos-2251-debris",
        "lat": -18.608585464804044,
        "lon": -59.95047630050496,
        "alt_km": 752.1297777731052,
        "timestamp": "2025-12-09T07:41:33.608778+00:00",
        "meta_object_name": "COSMOS 2251 DEB",
        "meta_object_id": "1993-036AXK",
        "meta_epoch": "2025-12-08T21:54:45.662400",
        "meta_mean_motion": 14.37840393,
        "meta_eccentricity": 0.00264397,
        "meta_inclination": 74.0564,
        "meta_ra_of_asc_node": 306.322,
        "meta_arg_of_pericenter": 357.1839,
        "meta_mean_anomaly": 35.1684,
        "meta_ephemeris_type": 0,
        "meta_classification_type": "U",
        "meta_norad_cat_id": 36048,
        "meta_element_set_no": 999,
        "meta_rev_at_epoch": 85447,
        "meta_bstar": 0.00045418588,
        "meta_mean_motion_dot": 1.349e-05,
        "meta_mean_motion_ddot": 0,
        "tle_line1": "1 36048U 93036AXK 25342.91302850  .00001349  00000+0  45419-3 0  9998",
        "tle_line2": "2 36048  74.0564 306.3220 0026439 357.1839  35.1684 14.37840393854472"
      },
      "geometry": {
        "type": "Point",
        "coordinates": [
          -59.95047630050496,
          -18.608585464804044
        ]
      }
    },
    {
      "type": "Feature",
      "properties": {
        "norad_id": 36049,
        "name": "COSMOS 2251 DEB",
        "group": "cosmos-2251-debris",
        "lat": 30.191047760192316,
        "lon": -63.85961966797992,
        "alt_km": 681.0155516611312,
        "timestamp": "2025-12-09T07:41:33.608788+00:00",
        "meta_object_name": "COSMOS 2251 DEB",
        "meta_object_id": "1993-036AXL",
        "meta_epoch": "2025-12-08T09:40:01.147584",
        "meta_mean_motion": 14.62047185,
        "meta_eccentricity": 0.00109946,
        "meta_inclination": 74.0303,
        "meta_ra_of_asc_node": 127.4878,
        "meta_arg_of_pericenter": 212.8558,
        "meta_mean_anomaly": 147.1926,
        "meta_ephemeris_type": 0,
        "meta_classification_type": "U",
        "meta_norad_cat_id": 36049,
        "meta_element_set_no": 999,
        "meta_rev_at_epoch": 85301,
        "meta_bstar": 0.0019302227,
        "meta_mean_motion_dot": 9.681e-05,
        "meta_mean_motion_ddot": 0,
        "tle_line1": "1 36049U 93036AXL 25342.40279106  .00009681  00000+0  19302-2 0  9998",
        "tle_line2": "2 36049  74.0303 127.4878 0010994 212.8558 147.1926 14.62047185853017"
      },
      "geometry": {
        "type": "Point",
        "coordinates": [
          -63.85961966797992,
          30.191047760192316
        ]
      }
    },
    {
      "type": "Feature",
      "properties": {
        "norad_id": 36050,
        "name": "COSMOS 2251 DEB",
        "group": "cosmos-2251-debris",
        "lat": 70.3719869894351,
        "lon": -32.423228053347934,
        "alt_km": 618.5134118877759,
        "timestamp": "2025-12-09T07:41:33.608799+00:00",
        "meta_object_name": "COSMOS 2251 DEB",
        "meta_object_id": "1993-036AXM",
        "meta_epoch": "2025-12-06T21:38:56.903136",
        "meta_mean_motion": 15.00909589,
        "meta_eccentricity": 0.00890187,
        "meta_inclination": 74.0309,
        "meta_ra_of_asc_node": 205.9114,
        "meta_arg_of_pericenter": 286.8649,
        "meta_mean_anomaly": 72.279,
        "meta_ephemeris_type": 0,
        "meta_classification_type": "U",
        "meta_norad_cat_id": 36050,
        "meta_element_set_no": 999,
        "meta_rev_at_epoch": 66947,
        "meta_bstar": 0.00085100321,
        "meta_mean_motion_dot": 0.00011772,
        "meta_mean_motion_ddot": 0,
        "tle_line1": "1 36050U 93036AXM 25340.90204749  .00011772  00000+0  85100-3 0  9998",
        "tle_line2": "2 36050  74.0309 205.9114 0089018 286.8649  72.2790 15.00909589669475"
      },
      "geometry": {
        "type": "Point",
        "coordinates": [
          -32.423228053347934,
          70.3719869894351
        ]
      }
    },
    {
      "type": "Feature",
      "properties": {
        "norad_id": 36053,
        "name": "COSMOS 2251 DEB",
        "group": "cosmos-2251-debris",
        "lat": -7.798295294457154,
        "lon": -18.482205380491653,
        "alt_km": 701.2939442698935,
        "timestamp": "2025-12-09T07:41:33.608842+00:00",
        "meta_object_name": "COSMOS 2251 DEB",
        "meta_object_id": "1993-036AXQ",
        "meta_epoch": "2025-12-07T18:35:05.079840",
        "meta_mean_motion": 14.57073871,
        "meta_eccentricity": 0.00329405,
        "meta_inclination": 73.8696,
        "meta_ra_of_asc_node": 162.2116,
        "meta_arg_of_pericenter": 112.9902,
        "meta_mean_anomaly": 247.4742,
        "meta_ephemeris_type": 0,
        "meta_classification_type": "U",
        "meta_norad_cat_id": 36053,
        "meta_element_set_no": 999,
        "meta_rev_at_epoch": 87372,
        "meta_bstar": 0.0027216261,
        "meta_mean_motion_dot": 0.0001234,
        "meta_mean_motion_ddot": 0,
        "tle_line1": "1 36053U 93036AXQ 25341.77436435  .00012340  00000+0  27216-2 0  9991",
        "tle_line2": "2 36053  73.8696 162.2116 0032940 112.9902 247.4742 14.57073871873729"
      },
      "geometry": {
        "type": "Point",
        "coordinates": [
          -18.482205380491653,
          -7.798295294457154
        ]
      }
    },
    {
      "type": "Feature",
      "properties": {
        "norad_id": 36058,
        "name": "COSMOS 2251 DEB",
        "group": "cosmos-2251-debris",
        "lat": -60.093212592911634,
        "lon": 10.10396937924686,
        "alt_km": 720.3150440093914,
        "timestamp": "2025-12-09T07:41:33.608856+00:00",
        "meta_object_name": "COSMOS 2251 DEB",
        "meta_object_id": "1993-036AXV",
        "meta_epoch": "2025-12-07T13:11:34.398816",
        "meta_mean_motion": 14.58652352,
        "meta_eccentricity": 0.00449501,
        "meta_inclination": 74.0237,
        "meta_ra_of_asc_node": 43.35,
        "meta_arg_of_pericenter": 178.9506,
        "meta_mean_anomaly": 181.1762,
        "meta_ephemeris_type": 0,
        "meta_classification_type": "U",
        "meta_norad_cat_id": 36058,
        "meta_element_set_no": 999,
        "meta_rev_at_epoch": 66035,
        "meta_bstar": 0.0010227034,
        "meta_mean_motion_dot": 4.806e-05,
        "meta_mean_motion_ddot": 0,
        "tle_line1": "1 36058U 93036AXV 25341.54970369  .00004806  00000+0  10227-2 0  9992",
        "tle_line2": "2 36058  74.0237  43.3500 0044950 178.9506 181.1762 14.58652352660357"
      },
      "geometry": {
        "type": "Point",
        "coordinates": [
          10.10396937924686,
          -60.093212592911634
        ]
      }
    }
  ]
}